TECMS                   
1 53346U 22090A   26129.15627681  .00003025  00000+0  13777-3 0  9997
2 53346  97.3152 198.3652 0002123   0.4364 359.6874 15.21417349208873
DONGPO 02               
1 53452U 22098J   26129.19422391  .00071493  00000+0  64303-3 0  9993
2 53452  97.5465 257.2454 0002792 131.6534 228.4966 15.68007808208672
DONGPO 01               
1 53453U 22098K   26129.20359071  .00065068  00000+0  62336-3 0  9995
2 53453  97.5532 257.8600 0000922 149.9231 210.2081 15.66467741208644
STARLINK-4400           
1 53468U 22099D   26128.90151264 -.00003196  00000+0 -21736-3 0  9997
2 53468  97.5164 249.3669 0000266 158.1282 201.9957 15.05672819205037
STARLINK-4621           
1 53676U 22105AE  26129.17012698 -.00001064  00000+0 -69611-4 0  9990
2 53676  97.5184   9.6360 0002714  67.0321 293.1193 15.05653993202334
SHERPA-LTC2             
1 53754U 22107BG  26129.00903786  .00005444  00000+0  27921-3 0  9999
2 53754  53.2344  26.1261 0397948 116.5903 247.6423 14.69147435196783
CENTISPACE-1 S3         
1 53757U 22108A   26129.21915019  .00000310  00000+0  10056-3 0  9996
2 53757  53.5326 216.3896 0008341 235.3263 124.6926 14.61216633195837
CENTISPACE-1 S4         
1 53758U 22108B   26129.22147130  .00000440  00000+0  12489-3 0  9995
2 53758  53.5301 214.0813 0008154 221.0290 139.0072 14.61888726195862
BLUEWALKER-3            
1 53807U 22111AL  26128.60533262  .00005151  00000+0  14692-3 0  9992
2 53807  53.2280 219.7231 0007283  60.1319 300.0409 15.37805521204111
YUNHAI-1 03             
1 53877U 22115A   26129.21779666  .00000298  00000+0  12569-3 0  9999
2 53877  98.5539 127.8612 0005266 148.7843 211.3655 14.32690911189931
CENTISPACE-1 S5         
1 54020U 22126A   26129.13856885  .00000654  00000+0  16341-3 0  9990
2 54020  55.0005   9.2113 0011988 353.6749   6.4092 14.62942939191324
CENTISPACE-1 S6         
1 54021U 22126B   26129.18097748  .00000539  00000+0  14315-3 0  9992
2 54021  55.0008  10.7278 0013831 352.6448   7.4341 14.62233892191296
OTB-3-GAZELLE           
1 54023U 22127A   26128.94279029  .00000126  00000+0  50822-4 0  9998
2 54023  98.3939 121.2473 0012165 311.0591  48.9547 14.42660222188702
ASO-S                   
1 54029U 22129A   26129.18259921  .00000132  00000+0  43725-4 0  9993
2 54029  98.2759 134.8212 0013625 207.7288 152.3183 14.52042653189760
HJ-2E                   
1 54035U 22132A   26129.16665269  .00006807  00000+0  30148-3 0  9997
2 54035  97.3815 134.2648 0022017 142.2361 218.0425 15.21739376198487
COSMOS 2561             
1 54109U 22137A   26129.13349663  .00012020  00000+0  21010-3 0  9990
2 54109  96.9221 189.6135 0010639 160.2020 199.9648 15.50724235200296
GONETS-M 23             
1 54150U 22139A   26129.14127177  .00000030  00000+0  14605-3 0  9993
2 54150  82.5103  12.5605 0020909 309.2662  50.6562 12.42889105160790
GONETS-M 24             
1 54151U 22139B   26129.11439881  .00000032  00000+0  16096-3 0  9997
2 54151  82.5014  11.6639 0016310 320.8106  39.1792 12.42889670160796
GONETS-M 25             
1 54152U 22139C   26129.18124346  .00000018  00000+0  60138-4 0  9993
2 54152  82.5079  12.2875 0020193 318.3990  41.5553 12.42888969160808
SKIF-D                  
1 54153U 22139D   26127.28584473  .00000036  00000+0  00000+0 0  9991
2 54153  89.9559  96.6802 0007360 215.1989 144.7889  5.00439105 62069
MATS                    
1 54227U 22147A   26128.96051323  .00003342  00000+0  23888-3 0  9997
2 54227  97.6824 130.7352 0011884 339.5995  20.4755 15.05109675191861
EOS-6 (OCEANSAT-3)      
1 54361U 22158A   26129.23192456  .00000219  00000+0  72157-4 0  9996
2 54361  98.3512 227.9476 0002275  92.4771 267.6682 14.47017949182208
DONGPO 09               
1 54685U 22167D   26129.18887172  .00010004  00000+0  29255-3 0  9998
2 54685  97.6880 298.4897 0001238 243.1438 116.9678 15.35486277189468
DONGPO 08               
1 54686U 22167E   26129.16753637  .00008698  00000+0  27617-3 0  9991
2 54686  97.6841 295.8277 0007083 310.7732  49.2894 15.32894799189345
2022-167F               
1 54687U 22167F   26129.20591228  .00116218  00000+0  61287-3 0  9992
2 54687  97.6181 312.7148 0003214 188.2783 171.8432 15.80322565190651
DONGPO 10               
1 54689U 22167H   26129.19436229  .00009390  00000+0  29087-3 0  9995
2 54689  97.6924 297.7152 0003950 244.0209 116.0626 15.33673047189382
JILIN-1 GAOFEN 03D48    
1 54695U 22167P   26129.21102916  .00009897  00000+0  29943-3 0  9991
2 54695  97.6857 297.0989 0005204 249.8633 110.2049 15.34403257189417
STAR VIBE               
1 55009U 23001A   26129.17071167  .00012645  00000+0  30276-3 0  9993
2 55009  97.3190 193.5049 0004392 244.4630 115.6163 15.41567776186212
BRO-8                   
1 55011U 23001C   26129.19352380  .00026825  00000+0  53597-3 0  9993
2 55011  97.3235 193.8832 0004639 250.1775 109.8975 15.46777162186174
