OBJECT_NAME,OBJECT_ID,EPOCH,MEAN_MOTION,ECCENTRICITY,INCLINATION,RA_OF_ASC_NODE,ARG_OF_PERICENTER,MEAN_ANOMALY,EPHEMERIS_TYPE,CLASSIFICATION_TYPE,NORAD_CAT_ID,ELEMENT_SET_NO,REV_AT_EPOCH,BSTAR,MEAN_MOTION_DOT,MEAN_MOTION_DDOT
TECMS,2022-090A,2026-05-09T03:45:02.316384,15.21417349,.0002123,97.3152,198.3652,0.4364,359.6874,0,U,53346,999,20887,.13777E-3,.3025E-4,0
DONGPO 02,2022-098J,2026-05-09T04:39:40.945824,15.68007808,.0002792,97.5465,257.2454,131.6534,228.4966,0,U,53452,999,20867,.64303E-3,.71493E-3,0
DONGPO 01,2022-098K,2026-05-09T04:53:10.237344,15.66467741,.0000922,97.5532,257.8600,149.9231,210.2081,0,U,53453,999,20864,.62336E-3,.65068E-3,0
STARLINK-4400,2022-099D,2026-05-08T21:38:10.692096,15.05672819,.0000266,97.5164,249.3669,158.1282,201.9957,0,U,53468,999,20503,-.21736E-3,-.3196E-4,0
STARLINK-4621,2022-105AE,2026-05-09T04:04:58.971072,15.05653993,.0002714,97.5184,9.6360,67.0321,293.1193,0,U,53676,999,20233,-.69611E-4,-.1064E-4,0
SHERPA-LTC2,2022-107BG,2026-05-09T00:13:00.871104,14.69147435,.0397948,53.2344,26.1261,116.5903,247.6423,0,U,53754,999,19678,.27921E-3,.5444E-4,0
CENTISPACE-1 S3,2022-108A,2026-05-09T05:15:34.576416,14.61216633,.0008341,53.5326,216.3896,235.3263,124.6926,0,U,53757,999,19583,.10056E-3,.31E-5,0
CENTISPACE-1 S4,2022-108B,2026-05-09T05:18:55.120320,14.61888726,.0008154,53.5301,214.0813,221.0290,139.0072,0,U,53758,999,19586,.12489E-3,.44E-5,0
BLUEWALKER-3,2022-111AL,2026-05-08T14:31:40.738368,15.37805521,.00072836,53.2280,219.7231,60.1319,300.0409,0,U,53807,999,20411,.14692079E-3,.5151E-4,0
YUNHAI-1 03,2022-115A,2026-05-09T05:13:37.631424,14.32690911,.0005266,98.5539,127.8612,148.7843,211.3655,0,U,53877,999,18993,.12569E-3,.298E-5,0
CENTISPACE-1 S5,2022-126A,2026-05-09T03:19:32.348640,14.62942939,.0011988,55.0005,9.2113,353.6749,6.4092,0,U,54020,999,19132,.16341E-3,.654E-5,0
CENTISPACE-1 S6,2022-126B,2026-05-09T04:20:36.454272,14.62233892,.0013831,55.0008,10.7278,352.6448,7.4341,0,U,54021,999,19129,.14315E-3,.539E-5,0
OTB-3-GAZELLE,2022-127A,2026-05-08T22:37:37.081056,14.42660222,.0012165,98.3939,121.2473,311.0591,48.9547,0,U,54023,999,18870,.50822E-4,.126E-5,0
ASO-S,2022-129A,2026-05-09T04:22:56.571744,14.52042653,.0013625,98.2759,134.8212,207.7288,152.3183,0,U,54029,999,18976,.43725E-4,.132E-5,0
HJ-2E,2022-132A,2026-05-09T03:59:58.792416,15.21739376,.0022017,97.3815,134.2648,142.2361,218.0425,0,U,54035,999,19848,.30148E-3,.6807E-4,0
COSMOS 2561,2022-137A,2026-05-09T03:12:14.108832,15.50724235,.0010639,96.9221,189.6135,160.2020,199.9648,0,U,54109,999,20029,.2101E-3,.1202E-3,0
GONETS-M 23,2022-139A,2026-05-09T03:23:25.880928,12.42889105,.0020909,82.5103,12.5605,309.2662,50.6562,0,U,54150,999,16079,.14605E-3,.3E-6,0
GONETS-M 24,2022-139B,2026-05-09T02:44:44.057184,12.42889670,.001631,82.5014,11.6639,320.8106,39.1792,0,U,54151,999,16079,.16096E-3,.32E-6,0
GONETS-M 25,2022-139C,2026-05-09T04:20:59.434944,12.42888969,.0020193,82.5079,12.2875,318.3990,41.5553,0,U,54152,999,16080,.60138E-4,.18E-6,0
SKIF-D,2022-139D,2026-05-07T06:51:36.984672,5.00439105,.00073606,89.9559,96.6802,215.1989,144.7889,0,U,54153,999,6206,0,.36E-6,0
MATS,2022-147A,2026-05-08T23:03:08.343072,15.05109675,.0011884,97.6824,130.7352,339.5995,20.4755,0,U,54227,999,19186,.23888E-3,.3342E-4,0
EOS-6 (OCEANSAT-3),2022-158A,2026-05-09T05:33:58.281984,14.47017949,.0002275,98.3512,227.9476,92.4771,267.6682,0,U,54361,999,18220,.72157E-4,.219E-5,0
DONGPO 09,2022-167D,2026-05-09T04:31:58.516608,15.35486277,.0001238,97.6880,298.4897,243.1438,116.9678,0,U,54685,999,18946,.29255E-3,.10004E-3,0
DONGPO 08,2022-167E,2026-05-09T04:01:15.142368,15.32894799,.0007083,97.6841,295.8277,310.7732,49.2894,0,U,54686,999,18934,.27617E-3,.8698E-4,0
2022-167F,2022-167F,2026-05-09T04:56:30.820992,15.80322565,.0003214,97.6181,312.7148,188.2783,171.8432,0,U,54687,999,19065,.61287E-3,.116218E-2,0
DONGPO 10,2022-167H,2026-05-09T04:39:52.901856,15.33673047,.000395,97.6924,297.7152,244.0209,116.0626,0,U,54689,999,18938,.29087E-3,.939E-4,0
JILIN-1 GAOFEN 03D48,2022-167P,2026-05-09T05:03:52.919424,15.34403257,.0005204,97.6857,297.0989,249.8633,110.2049,0,U,54695,999,18941,.29943E-3,.9897E-4,0
STAR VIBE,2023-001A,2026-05-09T04:05:49.488288,15.41567776,.0004392,97.3190,193.5049,244.4630,115.6163,0,U,55009,999,18621,.30276E-3,.12645E-3,0
BRO-8,2023-001C,2026-05-09T04:38:40.456320,15.46777162,.0004639,97.3235,193.8832,250.1775,109.8975,0,U,55011,999,18617,.53597E-3,.26825E-3,0
